{"type":"FeatureCollection","properties":{"source":"مرقمنة من خريطة القطاعات الرسمية لأمانة منطقة الرياض","note":"حدود تقريبية للعرض — ليست حدوداً مساحية معتمدة"},"features":[{"type":"Feature","properties":{"name":"قطاع الشمال","key":"north","labelAt":[24.775,46.64],"km2":240},"geometry":{"type":"Polygon","coordinates":[[[46.64905,24.66523],[46.64430,24.67007],[46.63312,24.69554],[46.62195,24.74037],[46.61300,24.75973],[46.60155,24.77120],[46.57752,24.78088],[46.56885,24.78725],[46.57053,24.82291],[46.56494,24.83616],[46.54901,24.85068],[46.54175,24.85068],[46.53784,24.84813],[46.50822,24.84864],[46.50514,24.87641],[46.50710,24.88226],[46.52554,24.88379],[46.54203,24.86367],[46.54315,24.85908],[46.55572,24.85119],[46.56299,24.85119],[46.56746,24.85373],[46.58311,24.85322],[46.59205,24.85832],[46.60770,24.85068],[46.63340,24.84762],[46.64458,24.85119],[46.64766,24.84380],[46.66247,24.83335],[46.72171,24.82367],[46.74266,24.79795],[46.74015,24.79311],[46.73121,24.78954],[46.72450,24.79158],[46.71891,24.79005],[46.71360,24.78164],[46.73372,24.74394],[46.73316,24.73273],[46.72534,24.71490],[46.72702,24.70063],[46.64905,24.66523]]]}},{"type":"Feature","properties":{"name":"قطاع الشرق","key":"east","labelAt":[24.815,46.8],"km2":589},"geometry":{"type":"Polygon","coordinates":[[[46.76418,24.65707],[46.76055,24.65733],[46.74825,24.67669],[46.74043,24.69401],[46.74043,24.70165],[46.73316,24.70930],[46.73428,24.71796],[46.74099,24.73069],[46.73987,24.75260],[46.73484,24.76432],[46.73931,24.77349],[46.73484,24.78419],[46.73652,24.78877],[46.74713,24.79642],[46.74546,24.80610],[46.72338,24.82673],[46.66470,24.83539],[46.65883,24.83870],[46.66079,24.84303],[46.67141,24.84151],[46.69013,24.85195],[46.69181,24.85705],[46.68789,24.86469],[46.69767,24.87513],[46.70997,24.88379],[46.71891,24.87615],[46.72506,24.87462],[46.73065,24.87615],[46.73680,24.88328],[46.74797,24.88430],[46.76278,24.89678],[46.76670,24.90646],[46.77731,24.91971],[46.78262,24.92048],[46.80330,24.90315],[46.82454,24.89806],[46.83376,24.88761],[46.83432,24.87844],[46.83963,24.87207],[46.85639,24.87055],[46.86590,24.86341],[46.86897,24.84686],[46.87931,24.83590],[46.89021,24.83004],[46.89663,24.82113],[46.92178,24.81756],[46.92737,24.81909],[46.93268,24.82546],[46.93212,24.84635],[46.94386,24.86418],[46.95280,24.89577],[46.97376,24.92200],[46.97823,24.92455],[46.99947,24.92659],[47.02462,24.92404],[47.07994,24.92404],[47.08693,24.92124],[47.08861,24.91207],[47.10258,24.88558],[47.10090,24.87386],[47.11152,24.86571],[47.11823,24.84940],[47.11068,24.83284],[47.09447,24.82266],[47.08777,24.82673],[47.06374,24.82826],[47.04921,24.81960],[47.03188,24.81705],[47.01176,24.81858],[46.99891,24.82571],[46.99332,24.82622],[46.96258,24.81756],[46.95084,24.81705],[46.94609,24.81170],[46.94609,24.80304],[46.93939,24.79744],[46.93771,24.79234],[46.94386,24.77502],[46.94498,24.75413],[46.94134,24.74929],[46.92178,24.74318],[46.91116,24.73350],[46.89663,24.72738],[46.89132,24.72152],[46.89021,24.71286],[46.88350,24.70930],[46.86645,24.69121],[46.85081,24.68713],[46.83572,24.67440],[46.82622,24.67287],[46.81951,24.67389],[46.81308,24.68127],[46.82426,24.69299],[46.82873,24.70216],[46.82705,24.70777],[46.81923,24.71541],[46.81699,24.72764],[46.80777,24.73248],[46.78151,24.72840],[46.77675,24.72305],[46.77675,24.71643],[46.80135,24.68280],[46.79212,24.67949],[46.78430,24.67083],[46.77145,24.66472],[46.76418,24.65707]]]}},{"type":"Feature","properties":{"name":"قطاع الوسط","key":"center","labelAt":[24.645,46.712],"km2":99},"geometry":{"type":"Polygon","coordinates":[[[46.73009,24.56537],[46.72590,24.56664],[46.72646,24.58702],[46.72115,24.59543],[46.71779,24.59746],[46.71221,24.59645],[46.70550,24.59084],[46.70215,24.59084],[46.70131,24.59670],[46.69600,24.60256],[46.65939,24.61657],[46.66386,24.64612],[46.65045,24.65937],[46.72953,24.69478],[46.75999,24.64103],[46.76837,24.61657],[46.78067,24.59670],[46.77648,24.59288],[46.76418,24.58982],[46.75859,24.58218],[46.73009,24.56537]]]}},{"type":"Feature","properties":{"name":"قطاع الغرب","key":"west","labelAt":[24.575,46.6],"km2":293},"geometry":{"type":"Polygon","coordinates":[[[46.65799,24.48487],[46.64123,24.48538],[46.63815,24.49226],[46.62558,24.50168],[46.60881,24.50015],[46.56131,24.51799],[46.53895,24.53480],[46.51604,24.53684],[46.50766,24.54295],[46.50095,24.54346],[46.49396,24.55798],[46.48698,24.56435],[46.47888,24.56613],[46.47776,24.57275],[46.46630,24.58677],[46.45177,24.59797],[46.43752,24.59925],[46.43920,24.60791],[46.48474,24.62141],[46.49341,24.63338],[46.49816,24.63568],[46.53225,24.62651],[46.54846,24.62549],[46.57975,24.63211],[46.61664,24.65402],[46.62837,24.65555],[46.63899,24.65045],[46.64793,24.65351],[46.65771,24.64306],[46.65324,24.62370],[46.65436,24.61300],[46.66023,24.60867],[46.69320,24.59746],[46.70215,24.58728],[46.70885,24.58728],[46.71612,24.59288],[46.71835,24.59186],[46.72087,24.58040],[46.71807,24.56664],[46.71053,24.56537],[46.70466,24.56104],[46.70466,24.54983],[46.66722,24.50092],[46.65799,24.48487]]]}},{"type":"Feature","properties":{"name":"قطاع الجنوب","key":"south","labelAt":[24.545,46.79],"km2":349},"geometry":{"type":"Polygon","coordinates":[[[46.87596,24.42577],[46.87260,24.42985],[46.86813,24.42883],[46.85584,24.43443],[46.85220,24.44284],[46.83963,24.44921],[46.82510,24.45073],[46.82230,24.44870],[46.80917,24.46984],[46.81085,24.47290],[46.80889,24.47468],[46.80302,24.47137],[46.81755,24.44844],[46.81392,24.44207],[46.78151,24.45277],[46.75524,24.45277],[46.74462,24.46041],[46.72841,24.46041],[46.71388,24.47111],[46.70215,24.47621],[46.66750,24.47825],[46.66386,24.48156],[46.66554,24.48818],[46.67616,24.49888],[46.67783,24.50499],[46.69739,24.52843],[46.70690,24.54473],[46.71835,24.55518],[46.72785,24.55976],[46.73512,24.55416],[46.74518,24.55365],[46.77061,24.56817],[46.77284,24.57479],[46.76781,24.58447],[46.77927,24.58880],[46.78458,24.59313],[46.78514,24.59823],[46.77284,24.62268],[46.76390,24.64816],[46.80498,24.67592],[46.81196,24.67312],[46.81923,24.66242],[46.81532,24.63899],[46.81699,24.62319],[46.82398,24.61683],[46.84130,24.61428],[46.84438,24.61148],[46.84997,24.59823],[46.85276,24.58244],[46.85863,24.57810],[46.87875,24.57658],[46.88881,24.56944],[46.91116,24.57199],[46.91591,24.56766],[46.91591,24.55696],[46.90753,24.54728],[46.90585,24.54117],[46.90977,24.53200],[46.90921,24.51875],[46.91480,24.50398],[46.92486,24.48971],[46.90949,24.48028],[46.89747,24.46933],[46.89132,24.43112],[46.87987,24.42883],[46.87596,24.42577]]]}}]}